NORAD_CAT_ID,OBJECT_NAME,OBJECT_TYPE,EPOCH,MEAN_MOTION,ECCENTRICITY,INCLINATION,RA_OF_ASC_NODE,ARG_OF_PERICENTER,MEAN_ANOMALY,BSTAR,MEAN_MOTION_DOT,MEAN_MOTION_DDOT,TLE_LINE0,TLE_LINE1,TLE_LINE2,SEMIMAJOR_AXIS,PERIOD,APOGEE,PERIGEE,DECAYED
53995.0,STARLINK-5097,PAYLOAD,2022-12-08 22:00:01,15.10528907,0.0001460999999999,53.2173,141.7075,69.9787,183.3924,-0.074314,-0.01141198,0.0,0 STARLINK-5097,1 53995U 22125AH  22342.91668981 -.01141198  00000-0 -74314-1 0  9991,2 53995  53.2173 141.7075 0001461  69.9787 183.3924 15.10528907 10365,6912.723000000001,95.331,535.5980000000002,533.578,0.0
53995.0,STARLINK-5097,PAYLOAD,2022-12-09 14:00:01,15.09013883,0.0001262,53.2178,138.7113,78.4743,200.0882,-0.015318,-0.00237267,0.0,0 STARLINK-5097,1 53995U 22125AH  22343.58334491 -.00237267  00000-0 -15318-1 0  9992,2 53995  53.2178 138.7113 0001262  78.4743 200.0882 15.09013883  1309,6917.349,95.427,540.087,538.341,0.0
53995.0,STARLINK-5097,PAYLOAD,2022-12-09 22:00:00,15.08856172,0.0001616,53.218,137.2212,63.9987,226.2703,-0.00013422,-2.425e-05,0.0,0 STARLINK-5097,1 53995U 22125AH  22343.91667824 -.00002425  00000-0 -13422-3 0  9990,2 53995  53.2180 137.2212 0001616  63.9987 226.2703 15.08856172 10518,6917.831,95.437,540.814,538.578,0.0
53995.0,STARLINK-5097,PAYLOAD,2022-12-10 14:00:01,15.08881423,0.0001626,53.2183,134.2276,71.7737,241.7131,-0.0097036,-0.0015166,0.0,0 STARLINK-5097,1 53995U 22125AH  22344.58334491 -.00151660  00000-0 -97036-2 0  9993,2 53995  53.2183 134.2276 0001626  71.7737 241.7131 15.08881423  1300,6917.754,95.435,540.744,538.494,0.0
53995.0,STARLINK-5097,PAYLOAD,2022-12-10 22:00:00,15.0872707,0.0001607,53.2179,132.7326,65.0892,259.9632,0.002996,0.00047568,0.0,0 STARLINK-5097,1 53995U 22125AH  22344.91667824  .00047568  00000-0  29960-2 0  9999,2 53995  53.2179 132.7326 0001607  65.0892 259.9632 15.08727070 10675,6918.226,95.445,541.202,538.979,0.0
53995.0,STARLINK-5097,PAYLOAD,2022-12-11 00:00:00,15.08733231,0.0001531999999999,53.2179,132.358,65.9652,351.9549,0.0030083,0.00047774,0.0,0 STARLINK-5097,1 53995U 22125AH  22345.00001157  .00047774  00000-0  30083-2 0  9998,2 53995  53.2179 132.3580 0001532  65.9652 351.9549 15.08733231  1309,6918.206999999999,95.444,541.132,539.012,0.0
53995.0,STARLINK-5097,PAYLOAD,2022-12-11 14:00:01,15.08858653,0.0001249,53.218,129.74,65.727,282.3421,-0.0014739,-0.0002368,0.0,0 STARLINK-5097,1 53995U 22125AH  22345.58334491 -.00023680  00000-0 -14739-2 0  9993,2 53995  53.2180 129.7400 0001249  65.7270 282.3421 15.08858653 10774,6917.823,95.436,540.552,538.8240000000002,0.0
53995.0,STARLINK-5097,PAYLOAD,2022-12-11 22:00:01,15.08844034,0.0001286,53.2177,128.2443,56.6134,303.1281,0.0015283,0.00024121,0.0,0 STARLINK-5097,1 53995U 22125AH  22345.91668981  .00024121  00000-0  15283-2 0  9998,2 53995  53.2177 128.2443 0001286  56.6134 303.1281 15.08844034  1303,6917.868,95.437,540.623,538.8430000000002,0.0
53995.0,STARLINK-5097,PAYLOAD,2022-12-12 06:00:00,15.08835232,0.0001194,53.2178,126.7457,67.3885,303.9142,0.0033589,0.00053568,0.0,0 STARLINK-5097,1 53995U 22125AH  22346.25001157  .00053568  00000-0  33589-2 0  9998,2 53995  53.2178 126.7457 0001194  67.3885 303.9142 15.08835232 10878,6917.895,95.438,540.586,538.934,0.0
53995.0,STARLINK-5097,PAYLOAD,2022-12-12 14:00:01,15.08894242,0.0001364,53.2182,125.2504,62.5849,320.336,-0.004237,-0.0006718999999999,0.0,0 STARLINK-5097,1 53995U 22125AH  22346.58334491 -.00067190  00000-0 -42370-2 0  9990,2 53995  53.2182 125.2504 0001364  62.5849 320.3360 15.08894242  1305,6917.715,95.434,540.523,538.636,0.0
53995.0,STARLINK-5097,PAYLOAD,2022-12-12 22:00:00,15.08856282,0.0001471,53.2178,123.7553,57.1523,337.3934,6.0616e-05,6.77e-06,0.0,0 STARLINK-5097,1 53995U 22125AH  22346.91667824  .00000677  00000-0  60616-4 0  9996,2 53995  53.2178 123.7553 0001471  57.1523 337.3934 15.08856282 10975,6917.831,95.437,540.7130000000002,538.678,0.0
53995.0,STARLINK-5097,PAYLOAD,2022-12-13 14:00:01,15.08837166,0.0001585,53.2174,120.7533,75.7766,342.0025,-3.7272e-05,-8.81e-06,0.0,0 STARLINK-5097,1 53995U 22125AH  22347.58334491 -.00000881  00000-0 -37272-4 0  9992,2 53995  53.2174 120.7533 0001585  75.7766 342.0025 15.08837166  1308,6917.889,95.438,540.851,538.658,0.0
53995.0,STARLINK-5097,PAYLOAD,2022-12-13 16:00:00,15.0883741,0.000159,53.2173,120.3794,75.5841,75.0929,-9.5354e-05,-1.805e-05,0.0,0 STARLINK-5097,1 53995U 22125AH  22347.66667824 -.00001805  00000-0 -95354-4 0  9992,2 53995  53.2173 120.3794 0001590  75.5841  75.0929 15.08837410 11084,6917.888000000001,95.438,540.8530000000002,538.653,0.0
53995.0,STARLINK-5097,PAYLOAD,2022-12-14 07:13:41,15.08998733,0.0001075,53.2184,117.536,89.5779,270.5337,-0.0015345,-0.00024732,0.0,0 STARLINK-5097,1 53995U 22125AH  22348.30117264 -.00024732  00000-0 -15345-2 0  9996,2 53995  53.2184 117.5360 0001075  89.5779 270.5337 15.08998733 11100,6917.395,95.428,540.004,538.5169999999998,0.0
53995.0,STARLINK-5097,PAYLOAD,2022-12-14 15:10:54,15.08853364,0.0001567,53.2164,116.0494,72.6029,287.5134,-5.389899999999999e-05,-1.146e-05,0.0,0 STARLINK-5097,1 53995U 22125AH  22348.63257073 -.00001146  00000-0 -53899-4 0  9997,2 53995  53.2164 116.0494 0001567  72.6029 287.5134 15.08853364 11234,6917.84,95.437,540.789,538.621,0.0
53995.0,STARLINK-5097,PAYLOAD,2022-12-15 08:40:09,15.08827648,0.0001264,53.2208,112.7806,46.4924,313.6173,-0.00016491,-2.911e-05,0.0,0 STARLINK-5097,1 53995U 22125AH  22349.36122617 -.00002911  00000-0 -16491-3 0  9990,2 53995  53.2208 112.7806 0001264  46.4924 313.6173 15.08827648 11342,6917.918000000002,95.438,540.658,538.909,0.0
53995.0,STARLINK-5097,PAYLOAD,2022-12-15 13:26:19,15.088220499999998,0.000132,53.22,111.89,53.2798,306.8315,1.4197e-05,-6.2e-07,0.0,0 STARLINK-5097,1 53995U 22125AH  22349.55994490 -.00000062  00000-0  14197-4 0  9993,2 53995  53.2200 111.8900 0001320  53.2798 306.8315 15.08822050 11295,6917.935,95.439,540.7130000000002,538.887,0.0
53995.0,STARLINK-5097,PAYLOAD,2022-12-15 15:01:41,15.08834487,0.0001508,53.2195,111.5915,60.3382,299.776,-9.5793e-05,-1.812e-05,0.0,0 STARLINK-5097,1 53995U 22125AH  22349.62618049 -.00001812  00000-0 -95793-4 0  9990,2 53995  53.2195 111.5915 0001508  60.3382 299.7760 15.08834487 11388,6917.897,95.438,540.805,538.719,0.0
53995.0,STARLINK-5097,PAYLOAD,2022-12-16 08:30:55,15.08843409,0.0001531999999999,53.2197,108.3208,60.1272,299.9872,1.0067e-05,-1.28e-06,0.0,0 STARLINK-5097,1 53995U 22125AH  22350.35481078 -.00000128  00000-0  10067-4 0  9991,2 53995  53.2197 108.3208 0001532  60.1272 299.9872 15.08843409 11494,6917.87,95.437,540.795,538.675,0.0
53995.0,STARLINK-5097,PAYLOAD,2022-12-16 13:17:05,15.08840977,0.0001535,53.2198,107.4287,59.9766,300.1378,-8.3989e-06,-4.22e-06,0.0,0 STARLINK-5097,1 53995U 22125AH  22350.55353263 -.00000422  00000-0 -83989-5 0  9999,2 53995  53.2198 107.4287 0001535  59.9766 300.1378 15.08840977 11447,6917.877,95.437,540.804,538.681,0.0
53995.0,STARLINK-5097,PAYLOAD,2022-12-16 18:03:14,15.08840214,0.0001539,53.2197,106.5366,58.8115,301.3028,-1.194e-05,-4.78e-06,0.0,0 STARLINK-5097,1 53995U 22125AH  22350.75225331 -.00000478  00000-0 -11940-4 0  9993,2 53995  53.2197 106.5366 0001539  58.8115 301.3028 15.08840214 11476,6917.88,95.438,540.809,538.68,0.0
53995.0,STARLINK-5097,PAYLOAD,2022-12-17 08:21:42,15.08832225,0.0001564,53.22,103.8608,60.4038,299.711,0.00011509,1.544e-05,0.0,0 STARLINK-5097,1 53995U 22125AH  22351.34841299  .00001544  00000-0  11509-3 0  9999,2 53995  53.2200 103.8608 0001564  60.4038 299.7110 15.08832225 11645,6917.904,95.438,540.851,538.687,0.0
53995.0,STARLINK-5097,PAYLOAD,2022-12-17 14:43:16,15.08825268,0.0001554,53.2201,102.6713,55.8522,304.2617,6.0315e-05,6.72e-06,0.0,0 STARLINK-5097,1 53995U 22125AH  22351.61338088  .00000672  00000-0  60315-4 0  9997,2 53995  53.2201 102.6713 0001554  55.8522 304.2617 15.08825268 11604,6917.925,95.438,540.865,538.715,0.0
53995.0,STARLINK-5097,PAYLOAD,2022-12-17 19:29:25,15.08829475,0.0001526,53.2202,101.7793,56.1871,303.9266,3.0103000000000013e-05,1.91e-06,0.0,0 STARLINK-5097,1 53995U 22125AH  22351.81210027  .00000191  00000-0  30103-4 0  9999,2 53995  53.2202 101.7793 0001526  56.1871 303.9266 15.08829475 11636,6917.913000000001,95.438,540.8330000000002,538.722,0.0
53995.0,STARLINK-5097,PAYLOAD,2022-12-18 00:15:34,15.08838384,0.0001534,53.2203,100.8874,54.2689,305.8446,1.6906e-05,-1.9e-07,0.0,0 STARLINK-5097,1 53995U 22125AH  22352.01081550 -.00000019  00000-0  16906-4 0  9994,2 53995  53.2203 100.8874 0001534  54.2689 305.8446 15.08838384 11744,6917.885,95.438,540.812,538.689,0.0
53995.0,STARLINK-5097,PAYLOAD,2022-12-18 08:12:30,15.08833462,0.0001582,53.221,99.4007,56.54600000000001,303.5683,-3.5083e-05,-8.46e-06,0.0,0 STARLINK-5097,1 53995U 22125AH  22352.34202125 -.00000846  00000-0 -35083-4 0  9999,2 53995  53.2210  99.4007 0001582  56.5460 303.5683 15.08833462 11793,6917.9,95.438,540.86,538.6709999999998,0.0
53995.0,STARLINK-5097,PAYLOAD,2022-12-18 11:23:16,15.08832045,0.0001492,53.2211,98.8059,59.1665,300.9474,-2.3034e-05,-6.54e-06,0.0,0 STARLINK-5097,1 53995U 22125AH  22352.47450164 -.00000654  00000-0 -23034-4 0  9991,2 53995  53.2211  98.8059 0001492  59.1665 300.9474 15.08832045 11739,6917.905,95.438,540.802,538.738,0.0
53995.0,STARLINK-5097,PAYLOAD,2022-12-18 19:20:12,15.08840735,0.0001615,53.2205,97.3194,58.1937,301.9213,2.9117e-05,1.75e-06,0.0,0 STARLINK-5097,1 53995U 22125AH  22352.80569538  .00000175  00000-0  29117-4 0  9998,2 53995  53.2205  97.3194 0001615  58.1937 301.9213 15.08840735 11786,6917.878000000002,95.438,540.86,538.626,0.0
53995.0,STARLINK-5097,PAYLOAD,2022-12-19 00:06:21,15.08846583,0.0001631,53.2209,96.4274,57.4845,302.6305,3.9258e-05,3.37e-06,0.0,0 STARLINK-5097,1 53995U 22125AH  22353.00441091  .00000337  00000-0  39258-4 0  9991,2 53995  53.2209  96.4274 0001631  57.4845 302.6305 15.08846583 11896,6917.86,95.437,540.854,538.597,0.0
